[
    {
        "Altitude(m)": 604234.5967095089,
        "Argument of Periapsis(deg)": 0.0,
        "Eccentricity": 0.0,
        "Inclination(deg)": 60.0,
        "Latitude(deg)": 14.117164365194904,
        "Longitude(deg)": -28.272692187361734,
        "Mean Anomaly(deg)": -196.36359999999996,
        "RAAN(deg)": 260.0,
        "Satellite Name": "Test1 1154",
        "Satellite Number": 1154,
        "Semi-Major Axis(m)": 6980739.136638005,
        "Time(s)": 0
    },
    {
        "Altitude(m)": 604223.4257827812,
        "Argument of Periapsis(deg)": 0.00010418945913296404,
        "Eccentricity": 0.0,
        "Inclination(deg)": 60.0,
        "Latitude(deg)": 13.582301124146152,
        "Longitude(deg)": -27.985782327827163,
        "Mean Anomaly(deg)": -195.74349385453812,
        "RAAN(deg)": 259.99957995086027,
        "Satellite Name": "Test1 1154",
        "Satellite Number": 1154,
        "Semi-Major Axis(m)": 6980739.136638005,
        "Time(s)": 10
    }
]